{
  "norad_id": 60447,
  "name": "STARLINK-32101",
  "history": [
    {
      "epoch": "2026-03-28T19:55:04.046016",
      "apogee_km": 476.2604588832428,
      "perigee_km": 474.2130820030616,
      "latitude_deg": -51.34177176709744,
      "longitude_deg": -55.6288377600722,
      "semi_major_axis_km": 6853.373770443152,
      "eccentricity": 0.00014937,
      "inclination_deg": 53.1597,
      "raan_deg": 127.9362,
      "arg_perigee_deg": 88.2614,
      "mean_anomaly_deg": 271.8558,
      "mean_motion_rev_day": 15.30192732
    }
  ]
}